STARLINK-5303           
1 55630U 23021C   26068.80262973  .00000032  00000+0  10498-4 0  9996
2 55630  70.0006 204.2304 0003064 269.6598  90.4210 14.98330043168317
ADRAS-J                 
1 58992U 24034A   26068.91589465  .00004016  00000+0  21471-3 0  9993
2 58992  98.2230  88.3954 0075813  99.4078 261.5731 15.13266815112352
