[{"OBJECT_NAME":"STARLINK-5303","OBJECT_ID":"2023-021C","EPOCH":"2026-03-09T19:15:47.208672","MEAN_MOTION":14.98330043,"ECCENTRICITY":0.00030645,"INCLINATION":70.0006,"RA_OF_ASC_NODE":204.2304,"ARG_OF_PERICENTER":269.6598,"MEAN_ANOMALY":90.421,"EPHEMERIS_TYPE":0,"CLASSIFICATION_TYPE":"U","NORAD_CAT_ID":55630,"ELEMENT_SET_NO":999,"REV_AT_EPOCH":16831,"BSTAR":1.049799e-5,"MEAN_MOTION_DOT":3.2e-7,"MEAN_MOTION_DDOT":0},{"OBJECT_NAME":"ADRAS-J","OBJECT_ID":"2024-034A","EPOCH":"2026-03-09T21:58:53.298624","MEAN_MOTION":15.13266815,"ECCENTRICITY":0.00758128,"INCLINATION":98.223,"RA_OF_ASC_NODE":88.3954,"ARG_OF_PERICENTER":99.4078,"MEAN_ANOMALY":261.5731,"EPHEMERIS_TYPE":0,"CLASSIFICATION_TYPE":"U","NORAD_CAT_ID":58992,"ELEMENT_SET_NO":999,"REV_AT_EPOCH":11235,"BSTAR":0.00021470617,"MEAN_MOTION_DOT":4.016e-5,"MEAN_MOTION_DDOT":0}]
